OBJECT_NAME,OBJECT_ID,EPOCH,MEAN_MOTION,ECCENTRICITY,INCLINATION,RA_OF_ASC_NODE,ARG_OF_PERICENTER,MEAN_ANOMALY,EPHEMERIS_TYPE,CLASSIFICATION_TYPE,NORAD_CAT_ID,ELEMENT_SET_NO,REV_AT_EPOCH,BSTAR,MEAN_MOTION_DOT,MEAN_MOTION_DDOT
STARLINK-5485,2023-094AV,2026-06-12T09:59:11.575680,15.27564466,.00014046,43.0011,215.6698,263.1191,96.9501,0,U,57261,999,16160,-.17614396E-4,-.747E-5,0
STARLINK-5504,2023-094AW,2026-06-13T19:33:28.411488,15.27576369,.00019195,43.0058,196.7973,268.7488,91.3144,0,U,57262,999,16194,.5827677E-5,-.102E-5,0
STARLINK-5509,2023-094AX,2026-06-13T09:25:59.112192,15.27569692,.00021331,43.0078,210.1083,281.9858,78.0755,0,U,57263,999,16175,-.6241517E-5,-.434E-5,0
STARLINK-5858,2023-094AY,2026-06-13T08:49:10.551936,15.27579677,.00023182,43.0043,199.4602,276.8854,83.1734,0,U,57264,999,16187,.20253578E-4,.295E-5,0
HULIANWANG JISHU SHIYAN A,2023-095A,2026-06-14T06:27:07.630848,13.39542349,.00171496,86.5031,5.7857,193.2901,166.7792,0,U,57288,999,14336,.8604186E-4,.62E-6,0
HULIANWANG JISHU SHIYAN B,2023-095B,2026-06-14T06:15:10.583424,13.39551064,.0015799,86.5032,5.7977,190.7440,169.3368,0,U,57289,999,14336,.81530561E-4,.59E-6,0
STARLINK-30198,2023-096A,2026-06-12T09:44:02.391072,15.25204011,.0007048,42.9901,52.4306,218.3077,141.7274,0,U,57290,999,16205,.13609031E-2,.34779E-3,0
STARLINK-30239,2023-096B,2026-06-13T09:13:28.763616,15.27580468,.00005248,43.0052,42.6640,134.6436,225.4458,0,U,57291,999,16225,-.19385736E-4,-.795E-5,0
STARLINK-30235,2023-096E,2026-06-12T09:50:22.887168,15.27576928,.00017275,43.0037,48.2498,273.0016,87.0638,0,U,57294,999,16210,.2922851E-4,.542E-5,0
STARLINK-30236,2023-096L,2026-06-13T22:01:32.412000,15.27569178,.0002831,43.0146,39.7824,287.7023,72.3520,0,U,57300,999,16237,-.12917E-4,-.618E-5,0
STARLINK-30201,2023-096M,2026-06-13T22:16:20.116704,15.27571001,.0001066,42.9939,39.8471,257.8798,102.1934,0,U,57301,999,16143,-.14475E-4,-.66E-5,0
STARLINK-30233,2023-096N,2026-06-13T22:07:04.751328,15.27572593,.0000984,43.0074,39.7907,237.0906,122.9852,0,U,57302,999,16143,-.10715E-4,-.557E-5,0
STARLINK-30184,2023-096W,2026-06-14T06:49:18.727392,15.27570666,.00016391,43.0102,8.9540,266.8906,93.1758,0,U,57310,999,16182,-.27394619E-4,-.1016E-4,0
STARLINK-6290,2023-099A,2026-06-14T00:38:43.604448,15.27571055,.00008607,43.0038,68.0265,217.8851,142.1940,0,U,57328,999,16172,-.17695037E-4,-.749E-5,0
STARLINK-6138,2023-099B,2026-06-13T11:08:16.334880,15.27597313,.00018474,43.0106,71.5414,272.4387,87.6253,0,U,57329,999,16072,.85100514E-4,.2081E-4,0
STARLINK-6212,2023-099C,2026-06-14T00:55:22.060128,15.27576997,.00006332,43.0055,68.1134,245.7329,114.3457,0,U,57330,999,16081,.5961458E-5,-.98E-6,0
STARLINK-6234,2023-099D,2026-06-14T01:00:55.169280,15.27575827,.00010915,43.0081,68.1425,264.0478,96.0249,0,U,57331,999,16081,.44667E-6,-.25E-5,0
STARLINK-5831,2023-099E,2026-06-13T10:57:11.950848,15.27587917,.00002865,42.9919,71.4837,253.0930,106.9891,0,U,57332,999,16072,.64074566E-4,.1502E-4,0
STARLINK-5585,2023-099F,2026-06-13T11:02:45.624192,15.27575355,.00018584,43.0133,71.5120,269.2145,90.8494,0,U,57333,999,16072,-.2855423E-5,-.341E-5,0
STARLINK-5589,2023-099G,2026-06-13T11:13:51.518496,15.27589807,.00011056,43.0027,71.5630,244.4948,115.5790,0,U,57334,999,16072,.82221493E-4,.2002E-4,0
STARLINK-6316,2023-099H,2026-06-14T00:13:42.432960,15.27590847,.00021384,43.0086,65.3549,111.8675,248.2404,0,U,57335,999,16084,.51965766E-4,.1168E-4,0
STARLINK-6320,2023-099J,2026-06-14T00:04:28.407648,15.27576993,.00020709,43.0032,65.2776,276.0957,83.9658,0,U,57336,999,16084,.16358099E-4,.188E-5,0
STARLINK-6322,2023-099K,2026-06-13T23:58:13.091232,15.27579800,.00017845,43.0041,68.6665,264.8220,95.2428,0,U,57337,999,16080,.10645986E-4,.31E-6,0
STARLINK-6374,2023-099L,2026-06-14T00:01:54.869664,15.27579937,.00024099,43.0140,68.6901,276.8761,83.1816,0,U,57338,999,16080,.19944595E-4,.286E-5,0
STARLINK-6332,2023-099M,2026-06-13T11:19:24.588768,15.27579638,.00020457,43.0031,71.5944,259.7851,100.2770,0,U,57339,999,16072,.26703484E-4,.472E-5,0
STARLINK-6321,2023-099N,2026-06-13T10:16:42.890016,15.27582267,.0001417,43.0025,72.1221,255.8091,104.2604,0,U,57340,999,16071,-.65810632E-4,-.2073E-4,0
STARLINK-6377,2023-099P,2026-06-14T01:07:37.598016,15.27589261,.00012185,43.0032,71.5857,277.8255,82.2459,0,U,57341,999,16077,-.19523385E-4,-.799E-5,0
STARLINK-6375,2023-099Q,2026-06-13T22:15:30.930912,15.27580810,.00017104,43.0079,65.5888,269.6488,90.4168,0,U,57342,999,16083,.28297653E-4,.516E-5,0
STARLINK-6379,2023-099R,2026-06-14T00:13:01.024896,15.27578882,.00016657,43.0071,68.7447,271.3110,88.7550,0,U,57343,999,16080,.15268285E-4,.158E-5,0
STARLINK-6380,2023-099S,2026-06-13T01:11:55.164192,15.27576582,.00008179,43.0032,73.5834,259.7032,100.3728,0,U,57344,999,16066,.5272514E-5,-.117E-5,0
