STARLINK-5485           
1 57261U 23094AV  26163.41610620 -.00000747  00000+0 -17614-4 0  9999
2 57261  43.0011 215.6698 0001404 263.1191  96.9501 15.27564466161601
STARLINK-5504           
1 57262U 23094AW  26164.81491217 -.00000102  00000+0  58277-5 0  9999
2 57262  43.0058 196.7973 0001919 268.7488  91.3144 15.27576369161943
STARLINK-5509           
1 57263U 23094AX  26164.39304528 -.00000434  00000+0 -62415-5 0  9999
2 57263  43.0078 210.1083 0002133 281.9858  78.0755 15.27569692161756
STARLINK-5858           
1 57264U 23094AY  26164.36748324  .00000295  00000+0  20254-4 0  9990
2 57264  43.0043 199.4602 0002318 276.8854  83.1734 15.27579677161870
HULIANWANG JISHU SHIYAN*
1 57288U 23095A   26165.26883832  .00000062  00000+0  86042-4 0  9990
2 57288  86.5031   5.7857 0017149 193.2901 166.7792 13.39542349143362
HULIANWANG JISHU SHIYAN*
1 57289U 23095B   26165.26053916  .00000059  00000+0  81531-4 0  9997
2 57289  86.5032   5.7977 0015799 190.7440 169.3368 13.39551064143368
STARLINK-30198          
1 57290U 23096A   26163.40558323  .00034779  00000+0  13609-2 0  9991
2 57290  42.9901  52.4306 0007048 218.3077 141.7274 15.25204011162058
STARLINK-30239          
1 57291U 23096B   26164.38436069 -.00000795  00000+0 -19386-4 0  9995
2 57291  43.0052  42.6640 0000524 134.6436 225.4458 15.27580468162252
STARLINK-30235          
1 57294U 23096E   26163.40998712  .00000542  00000+0  29229-4 0  9993
2 57294  43.0037  48.2498 0001727 273.0016  87.0638 15.27576928162101
STARLINK-30236          
1 57300U 23096L   26164.91773625 -.00000618  00000+0 -12917-4 0  9994
2 57300  43.0146  39.7824 0002831 287.7023  72.3520 15.27569178162370
STARLINK-30201          
1 57301U 23096M   26164.92801061 -.00000660  00000+0 -14475-4 0  9990
2 57301  42.9939  39.8471 0001066 257.8798 102.1934 15.27571001161439
STARLINK-30233          
1 57302U 23096N   26164.92158277 -.00000557  00000+0 -10715-4 0  9993
2 57302  43.0074  39.7907 0000984 237.0906 122.9852 15.27572593161430
STARLINK-30184          
1 57310U 23096W   26165.28424453 -.00001016  00000+0 -27395-4 0  9997
2 57310  43.0102   8.9540 0001639 266.8906  93.1758 15.27570666161826
STARLINK-6290           
1 57328U 23099A   26165.02689357 -.00000749  00000+0 -17695-4 0  9991
2 57328  43.0038  68.0265 0000860 217.8851 142.1940 15.27571055161724
STARLINK-6138           
1 57329U 23099B   26164.46407795  .00002081  00000+0  85101-4 0  9999
2 57329  43.0106  71.5414 0001847 272.4387  87.6253 15.27597313160727
STARLINK-6212           
1 57330U 23099C   26165.03844977 -.00000098  00000+0  59615-5 0  9991
2 57330  43.0055  68.1134 0000633 245.7329 114.3457 15.27576997160813
STARLINK-6234           
1 57331U 23099D   26165.04230520 -.00000250  00000+0  44667-6 0  9998
2 57331  43.0081  68.1425 0001091 264.0478  96.0249 15.27575827160810
STARLINK-5831           
1 57332U 23099E   26164.45638832  .00001502  00000+0  64075-4 0  9994
2 57332  42.9919  71.4837 0000286 253.0930 106.9891 15.27587917160726
STARLINK-5585           
1 57333U 23099F   26164.46025028 -.00000341  00000+0 -28554-5 0  9998
2 57333  43.0133  71.5120 0001858 269.2145  90.8494 15.27575355160729
STARLINK-5589           
1 57334U 23099G   26164.46795739  .00002002  00000+0  82221-4 0  9996
2 57334  43.0027  71.5630 0001105 244.4948 115.5790 15.27589807160720
STARLINK-6316           
1 57335U 23099H   26165.00951890  .00001168  00000+0  51966-4 0  9994
2 57335  43.0086  65.3549 0002138 111.8675 248.2404 15.27590847160842
STARLINK-6320           
1 57336U 23099J   26165.00310657  .00000188  00000+0  16358-4 0  9992
2 57336  43.0032  65.2776 0002070 276.0957  83.9658 15.27576993160848
STARLINK-6322           
1 57337U 23099K   26164.99876263  .00000031  00000+0  10646-4 0  9991
2 57337  43.0041  68.6665 0001784 264.8220  95.2428 15.27579800160809
STARLINK-6374           
1 57338U 23099L   26165.00132951  .00000286  00000+0  19945-4 0  9997
2 57338  43.0140  68.6901 0002409 276.8761  83.1816 15.27579937160809
STARLINK-6332           
1 57339U 23099M   26164.47181237  .00000472  00000+0  26703-4 0  9996
2 57339  43.0031  71.5944 0002045 259.7851 100.2770 15.27579638160724
STARLINK-6321           
1 57340U 23099N   26164.42827419 -.00002073  00000+0 -65811-4 0  9996
2 57340  43.0025  72.1221 0001417 255.8091 104.2604 15.27582267160710
STARLINK-6377           
1 57341U 23099P   26165.04696294 -.00000799  00000+0 -19523-4 0  9993
2 57341  43.0032  71.5857 0001218 277.8255  82.2459 15.27589261160772
STARLINK-6375           
1 57342U 23099Q   26164.92744133  .00000516  00000+0  28298-4 0  9990
2 57342  43.0079  65.5888 0001710 269.6488  90.4168 15.27580810160831
STARLINK-6379           
1 57343U 23099R   26165.00903964  .00000158  00000+0  15268-4 0  9995
2 57343  43.0071  68.7447 0001665 271.3110  88.7550 15.27578882160809
STARLINK-6380           
1 57344U 23099S   26164.04994403 -.00000117  00000+0  52725-5 0  9993
2 57344  43.0032  73.5834 0000817 259.7032 100.3728 15.27576582160669
